0 LANDSAT 7
1 25682U 99020A   13282.37440538  .00000190  00000-0  52195-4 0  5760
2 25682 098.2266 350.2079 0001431 094.1160 266.0218 14.57096703770465
0 LANDSAT 7
1 25682U 99020A   13282.71775550  .00000267  00000-0  69384-4 0  5777
2 25682 098.2276 350.5485 0001449 090.8003 269.3371 14.57097572770515
0 LANDSAT 7
1 25682U 99020A   13283.06110672  .00000305  00000-0  77744-4 0  5787
2 25682 098.2276 350.8879 0001567 092.4402 267.6973 14.57097665770564
0 LANDSAT 7
1 25682U 99020A   13283.33578712  .00000379  00000-0  94297-4 0  5794
2 25682 098.2273 351.1591 0001546 092.3659 267.7724 14.57098334770600
0 LANDSAT 7
1 25682U 99020A   13283.74780750  .00000451  00000-0  11025-3 0  5794
2 25682 098.2278 351.5666 0001591 089.9932 270.1436 14.57099003770666
0 LANDSAT 7
1 25682U 99020A   13284.15982881  .00000361  00000-0  90154-4 0  5802
2 25682 098.2273 351.9739 0001639 087.2369 272.9021 14.57099058770721
0 LANDSAT 7
1 25682U 99020A   13284.36583915  .00000346  00000-0  86932-4 0  5813
2 25682 098.2275 352.1776 0001650 087.6973 272.4416 14.57099113770753
0 LANDSAT 7
1 25682U 99020A   13285.32722068  .00000296  00000-0  75728-4 0  5842
2 25682 098.2272 353.1269 0001695 082.6288 277.5100 14.57099683770894
0 LANDSAT 7
1 25682U 99020A   13285.80791129  .00000233  00000-0  61925-4 0  5855
2 25682 098.2271 353.6017 0001678 080.4334 279.7031 14.57099561770968
0 LANDSAT 7
1 25682U 99020A   13286.15126235  .00000321  00000-0  81305-4 0  5867
2 25682 098.2272 353.9407 0001645 077.6926 282.4494 14.57100302771011
0 LANDSAT 7
1 25682U 99020A   13286.28860173  .00000336  00000-0  84740-4 0  5870
2 25682 098.2271 354.0766 0001649 076.8151 283.3232 14.57100473771036
0 LANDSAT 7
1 25682U 99020A   13286.76929230  .00000202  00000-0  55008-4 0  5881
2 25682 098.2268 354.5507 0001591 076.2581 283.8795 14.57100161771108
0 LANDSAT 7
1 25682U 99020A   13287.18131291  .00000259  00000-0  67626-4 0  5892
2 25682 098.2257 354.9573 0001483 072.2570 287.8798 14.57100434771163
0 LANDSAT 7
1 25682U 99020A   13287.45599269  .00000291  00000-0  74661-4 0  5900
2 25682 098.2258 355.2276 0001450 073.2275 286.9103 14.57101004771204
0 LANDSAT 7
1 25682U 99020A   13287.79934249  .00000222  00000-0  59403-4 0  5910
2 25682 098.2261 355.5674 0001447 073.1393 286.9953 14.57100790771258
0 LANDSAT 7
1 25682U 99020A   13288.14269335  .00000231  00000-0  61321-4 0  5920
2 25682 098.2265 355.9062 0001462 073.8011 286.3365 14.57100901771309
0 LANDSAT 7
1 25682U 99020A   13288.34870320  .00000234  00000-0  62063-4 0  5932
2 25682 098.2262 356.1095 0001465 073.8676 286.2687 14.57101006771331
0 LANDSAT 7
1 25682U 99020A   13288.76072322  .00000121  00000-0  36942-4 0  5947
2 25682 098.2259 356.5159 0001423 073.9940 286.1404 14.57100705771398
0 LANDSAT 7
1 25682U 99020A   13289.17274320  .00000242  00000-0  63739-4 0  5954
2 25682 098.2260 356.9226 0001433 071.2102 288.9270 14.57101684771456
0 LANDSAT 7
1 25682U 99020A   13289.44742219  .00000453  00000-0  11064-3 0  5969
2 25682 098.2275 357.1947 0001476 079.4414 280.6982 14.57103055771495
0 LANDSAT 7
1 25682U 99020A   13289.79077115  .00000457  00000-0  11152-3 0  5976
2 25682 098.2273 357.5337 0001481 077.5714 282.5643 14.57103356771543
0 LANDSAT 7
1 25682U 99020A   13290.13412180  .00000418  00000-0  10282-3 0  5982
2 25682 098.2276 357.8732 0001566 079.5437 280.5963 14.57103332771598
0 LANDSAT 7
1 25682U 99020A   13290.27146114  .00000340  00000-0  85472-4 0  5997
2 25682 098.2276 358.0087 0001580 079.8346 280.3022 14.57103147771613
0 LANDSAT 7
1 25682U 99020A   13290.61481079  .00000376  00000-0  93639-4 0  6003
2 25682 098.2280 358.3483 0001584 078.7066 281.4317 14.57103616771667
0 LANDSAT 7
1 25682U 99020A   13290.82082035  .00000385  00000-0  95621-4 0  6019
2 25682 098.2282 358.5520 0001621 079.9196 280.2174 14.57103700771697
0 LANDSAT 7
1 25682U 99020A   13291.16417077  .00000215  00000-0  57766-4 0  6026
2 25682 098.2279 358.8913 0001709 079.5764 280.5631 14.57103171771745
0 LANDSAT 7
1 25682U 99020A   13291.50751993  .00000274  00000-0  70982-4 0  6033
2 25682 098.2275 359.2303 0001704 078.4950 281.6455 14.57103862771797
0 LANDSAT 7
1 25682U 99020A   13291.85086900  .00000348  00000-0  87260-4 0  6040
2 25682 098.2276 359.5697 0001745 078.1619 281.9769 14.57104281771844
0 LANDSAT 7
1 25682U 99020A   13292.12554867  .00000386  00000-0  95853-4 0  6053
2 25682 098.2276 359.8412 0001743 077.6039 282.5373 14.57104748771880
0 LANDSAT 7
1 25682U 99020A   13292.33155782  .00000299  00000-0  76430-4 0  6063
2 25682 098.2276 000.0447 0001790 077.5301 282.6085 14.57104572771916
0 LANDSAT 7
1 25682U 99020A   13292.81224719  .00000133  00000-0  39535-4 0  6076
2 25682 098.2273 000.5190 0001734 076.9197 283.2177 14.57104004771983
0 LANDSAT 7
1 25682U 99020A   13293.08692703  .00000341  00000-0  85766-4 0  6087
2 25682 098.2271 000.7902 0001712 072.9273 287.2145 14.57105088772029
0 LANDSAT 7
1 25682U 99020A   13293.36160486  .00000543  00000-0  13071-3 0  6090
2 25682 098.2264 001.0616 0001724 073.2449 286.8942 14.57106437772062
0 LANDSAT 7
1 25682U 99020A   13293.70495365  .00000454  00000-0  11094-3 0  6101
2 25682 098.2262 001.4002 0001670 072.3234 287.8137 14.57106337772117
0 LANDSAT 7
1 25682U 99020A   13294.11697298  .00000333  00000-0  84107-4 0  6119
2 25682 098.2258 001.8066 0001665 074.3232 285.8145 14.57105995772172
0 LANDSAT 7
1 25682U 99020A   13294.39165218  .00000344  00000-0  86443-4 0  6129
2 25682 098.2255 002.0780 0001658 072.6207 287.5176 14.57106299772216
0 LANDSAT 7
1 25682U 99020A   13294.66633122  .00000202  00000-0  54978-4 0  6135
2 25682 098.2254 002.3490 0001577 072.5777 287.5594 14.57105917772251
0 LANDSAT 7
1 25682U 99020A   13294.94101083  .00000168  00000-0  47444-4 0  6144
2 25682 098.2252 002.6200 0001567 074.3988 285.7386 14.57105660772292
0 LANDSAT 7
1 25682U 99020A   13295.28435874  .00000308  00000-0  78389-4 0  6159
2 25682 098.2249 002.9591 0001538 070.2045 289.9321 14.57106854772348
0 LANDSAT 7
1 25682U 99020A   13295.76504703  .00000180  00000-0  50012-4 0  6162
2 25682 098.2243 003.4329 0001468 067.5351 292.5991 14.57106534772414
0 LANDSAT 7
1 25682U 99020A   13296.17706551  .00000279  00000-0  72006-4 0  6170
2 25682 098.2244 003.8397 0001461 065.8072 294.3285 14.57107240772475
